{
  "norad_id": 41241,
  "name": "IRNSS-1E",
  "history": [
    {
      "epoch": "2026-03-28T20:26:55.512096Z",
      "apogee_km": 35857.88146547576,
      "perigee_km": 35713.67918167244,
      "latitude_deg": -2.152322792533375,
      "longitude_deg": 111.19314238262272,
      "height_km": 35714.01949396252,
      "semi_major_axis_km": 42163.917323574104,
      "eccentricity": 0.00171002,
      "inclination_deg": 33.0629,
      "raan_deg": 60.9056,
      "arg_perigee_deg": 186.6338,
      "mean_anomaly_deg": 357.2752,
      "mean_motion_rev_day": 1.00274691
    }
  ]
}